[
  {
    "name": "KUIPER-00272",
    "noradId": "68588",
    "line1": "1 68588U 26072R   26191.96419083  .00001983  00000+0  28908-3 0  9991",
    "line2": "2 68588  51.8985  87.9953 0000837 106.7637 253.3417 14.79919744 14670"
  },
  {
    "name": "KUIPER-00285",
    "noradId": "68589",
    "line1": "1 68589U 26072S   26192.83336806 -.00435586  00000+0 -58412-1 0  9993",
    "line2": "2 68589  51.9420  64.2288 0001182 101.0406  96.6856 14.81267702  5051"
  },
  {
    "name": "KUIPER-00286",
    "noradId": "68590",
    "line1": "1 68590U 26072T   26192.83336806 -.00069715  00000+0 -76888-2 0  9990",
    "line2": "2 68590  51.8990  61.3975 0005374  35.1109 287.0423 14.87366129  5739"
  },
  {
    "name": "KUIPER-00289",
    "noradId": "68591",
    "line1": "1 68591U 26072U   26192.85824286  .00001818  00000+0  26735-3 0  9992",
    "line2": "2 68591  51.8993  69.0589 0000734 127.1529 232.9501 14.79938018 15013"
  },
  {
    "name": "KUIPER-00290",
    "noradId": "68592",
    "line1": "1 68592U 26072V   26192.83336806 -.00107764  00000+0 -15272-1 0  9998",
    "line2": "2 68592  51.9025  67.5771 0001806 284.6319 220.4532 14.77258062  4368"
  },
  {
    "name": "KUIPER-00293",
    "noradId": "68593",
    "line1": "1 68593U 26072W   26191.09168462  .00002509  00000+0  35806-3 0  9993",
    "line2": "2 68593  51.8987  86.8548 0002788 116.1338 243.9912 14.79934757 14616"
  },
  {
    "name": "KUIPER-00294",
    "noradId": "68594",
    "line1": "1 68594U 26072X   26192.86001723  .00001385  00000+0  21617-3 0  9992",
    "line2": "2 68594  51.9007  66.5397 0001697  76.8019 283.3133 14.78783216 15057"
  },
  {
    "name": "KUIPER-00296",
    "noradId": "68595",
    "line1": "1 68595U 26072Y   26192.83336806 -.00018732  00000+0 -49603-3 0  9994",
    "line2": "2 68595  51.8704  57.6424 0009770 109.1170 223.1080 15.37196760  5804"
  },
  {
    "name": "KUIPER-00297",
    "noradId": "68596",
    "line1": "1 68596U 26072Z   26192.85114419  .00000611  00000+0  11780-3 0  9991",
    "line2": "2 68596  51.9006  78.7533 0001157 130.6418 229.4643 14.76357877 14883"
  },
  {
    "name": "KUIPER-00300",
    "noradId": "68597",
    "line1": "1 68597U 26072AA  26192.84327546  .00000625  00000+0  11959-3 0  9991",
    "line2": "2 68597  51.9036  75.8487 0001868 126.4606 233.6527 14.76473997 14929"
  },
  {
    "name": "KUIPER-00301",
    "noradId": "68598",
    "line1": "1 68598U 26072AB  26192.83805838  .00022917  00000+0  59769-3 0  9995",
    "line2": "2 68598  51.8659  57.5693 0009544 110.7214 249.4797 15.38693985 15178"
  },
  {
    "name": "KUIPER-00304",
    "noradId": "68599",
    "line1": "1 68599U 26072AC  26192.78660422  .00021739  00000+0  57078-3 0  9990",
    "line2": "2 68599  51.8675  57.9829 0011809 112.8231 247.4004 15.38499181 15161"
  },
  {
    "name": "KUIPER-00317",
    "noradId": "68600",
    "line1": "1 68600U 26072AD  26192.82718494  .00003606  00000+0  50140-3 0  9997",
    "line2": "2 68600  51.8994  66.7071 0001778 135.7017 224.4088 14.79964514 15040"
  },
  {
    "name": "KUIPER-00320",
    "noradId": "68601",
    "line1": "1 68601U 26072AE  26192.07896555  .00001951  00000+0  28487-3 0  9990",
    "line2": "2 68601  51.9023  75.0040 0000720 119.4256 240.6779 14.79923590 14869"
  },
  {
    "name": "KUIPER-00299",
    "noradId": "68864",
    "line1": "1 68864U 26095A   26192.29635593  .00001223  00000+0  20465-3 0  9993",
    "line2": "2 68864  51.8993 142.5206 0001542 253.6818 106.3973 14.76471190 11207"
  },
  {
    "name": "KUIPER-00353",
    "noradId": "68865",
    "line1": "1 68865U 26095B   26192.83336806 -.00044666  00000+0 -49015-2 0  9990",
    "line2": "2 68865  51.8994 126.8263 0001880   8.5275 291.7265 14.87355900  5192"
  }
]