{"fetched_at":"2026-07-12T05:52:32.048Z","source":"https://celestrak.org/NORAD/elements/gp.php?GROUP=kuiper&FORMAT=JSON","constellation":"kuiper","records":[{"OBJECT_NAME":"KUIPER-00272","OBJECT_ID":"2026-072R","EPOCH":"2026-07-10T23:08:26.087712","CLASSIFICATION_TYPE":"U","MEAN_MOTION":14.79919744,"ECCENTRICITY":0.00008375,"INCLINATION":51.8985,"RA_OF_ASC_NODE":87.9953,"ARG_OF_PERICENTER":106.7637,"MEAN_ANOMALY":253.3417,"EPHEMERIS_TYPE":0,"NORAD_CAT_ID":68588,"ELEMENT_SET_NO":999,"REV_AT_EPOCH":1467,"BSTAR":0.00028908134,"MEAN_MOTION_DOT":0.00001983,"MEAN_MOTION_DDOT":0},{"OBJECT_NAME":"KUIPER-00285","OBJECT_ID":"2026-072S","EPOCH":"2026-07-11T20:00:03.000384","CLASSIFICATION_TYPE":"U","MEAN_MOTION":14.81267702,"ECCENTRICITY":0.0001182,"INCLINATION":51.942,"RA_OF_ASC_NODE":64.2288,"ARG_OF_PERICENTER":101.0406,"MEAN_ANOMALY":96.6856,"EPHEMERIS_TYPE":0,"NORAD_CAT_ID":68589,"ELEMENT_SET_NO":999,"REV_AT_EPOCH":505,"BSTAR":-0.058412,"MEAN_MOTION_DOT":-0.00435586,"MEAN_MOTION_DDOT":0},{"OBJECT_NAME":"KUIPER-00286","OBJECT_ID":"2026-072T","EPOCH":"2026-07-11T20:00:03.000384","CLASSIFICATION_TYPE":"U","MEAN_MOTION":14.87366129,"ECCENTRICITY":0.0005374,"INCLINATION":51.899,"RA_OF_ASC_NODE":61.3975,"ARG_OF_PERICENTER":35.1109,"MEAN_ANOMALY":287.0423,"EPHEMERIS_TYPE":0,"NORAD_CAT_ID":68590,"ELEMENT_SET_NO":999,"REV_AT_EPOCH":573,"BSTAR":-0.0076888,"MEAN_MOTION_DOT":-0.00069715,"MEAN_MOTION_DDOT":0},{"OBJECT_NAME":"KUIPER-00289","OBJECT_ID":"2026-072U","EPOCH":"2026-07-11T20:35:52.183104","CLASSIFICATION_TYPE":"U","MEAN_MOTION":14.79938018,"ECCENTRICITY":0.0000734,"INCLINATION":51.8993,"RA_OF_ASC_NODE":69.0589,"ARG_OF_PERICENTER":127.1529,"MEAN_ANOMALY":232.9501,"EPHEMERIS_TYPE":0,"NORAD_CAT_ID":68591,"ELEMENT_SET_NO":999,"REV_AT_EPOCH":1501,"BSTAR":0.00026735,"MEAN_MOTION_DOT":0.00001818,"MEAN_MOTION_DDOT":0},{"OBJECT_NAME":"KUIPER-00290","OBJECT_ID":"2026-072V","EPOCH":"2026-07-11T20:00:03.000384","CLASSIFICATION_TYPE":"U","MEAN_MOTION":14.77258062,"ECCENTRICITY":0.0001806,"INCLINATION":51.9025,"RA_OF_ASC_NODE":67.5771,"ARG_OF_PERICENTER":284.6319,"MEAN_ANOMALY":220.4532,"EPHEMERIS_TYPE":0,"NORAD_CAT_ID":68592,"ELEMENT_SET_NO":999,"REV_AT_EPOCH":436,"BSTAR":-0.015272,"MEAN_MOTION_DOT":-0.00107764,"MEAN_MOTION_DDOT":0},{"OBJECT_NAME":"KUIPER-00293","OBJECT_ID":"2026-072W","EPOCH":"2026-07-10T02:12:01.551168","CLASSIFICATION_TYPE":"U","MEAN_MOTION":14.79934757,"ECCENTRICITY":0.00027884,"INCLINATION":51.8987,"RA_OF_ASC_NODE":86.8548,"ARG_OF_PERICENTER":116.1338,"MEAN_ANOMALY":243.9912,"EPHEMERIS_TYPE":0,"NORAD_CAT_ID":68593,"ELEMENT_SET_NO":999,"REV_AT_EPOCH":1461,"BSTAR":0.00035806126,"MEAN_MOTION_DOT":0.00002509,"MEAN_MOTION_DDOT":0},{"OBJECT_NAME":"KUIPER-00294","OBJECT_ID":"2026-072X","EPOCH":"2026-07-11T20:38:25.488672","CLASSIFICATION_TYPE":"U","MEAN_MOTION":14.78783216,"ECCENTRICITY":0.0001697,"INCLINATION":51.9007,"RA_OF_ASC_NODE":66.5397,"ARG_OF_PERICENTER":76.8019,"MEAN_ANOMALY":283.3133,"EPHEMERIS_TYPE":0,"NORAD_CAT_ID":68594,"ELEMENT_SET_NO":999,"REV_AT_EPOCH":1505,"BSTAR":0.00021617,"MEAN_MOTION_DOT":0.00001385,"MEAN_MOTION_DDOT":0},{"OBJECT_NAME":"KUIPER-00296","OBJECT_ID":"2026-072Y","EPOCH":"2026-07-11T20:00:03.000384","CLASSIFICATION_TYPE":"U","MEAN_MOTION":15.3719676,"ECCENTRICITY":0.000977,"INCLINATION":51.8704,"RA_OF_ASC_NODE":57.6424,"ARG_OF_PERICENTER":109.117,"MEAN_ANOMALY":223.108,"EPHEMERIS_TYPE":0,"NORAD_CAT_ID":68595,"ELEMENT_SET_NO":999,"REV_AT_EPOCH":580,"BSTAR":-0.00049603,"MEAN_MOTION_DOT":-0.00018732,"MEAN_MOTION_DDOT":0},{"OBJECT_NAME":"KUIPER-00297","OBJECT_ID":"2026-072Z","EPOCH":"2026-07-11T20:25:38.858016","CLASSIFICATION_TYPE":"U","MEAN_MOTION":14.76357877,"ECCENTRICITY":0.0001157,"INCLINATION":51.9006,"RA_OF_ASC_NODE":78.7533,"ARG_OF_PERICENTER":130.6418,"MEAN_ANOMALY":229.4643,"EPHEMERIS_TYPE":0,"NORAD_CAT_ID":68596,"ELEMENT_SET_NO":999,"REV_AT_EPOCH":1488,"BSTAR":0.0001178,"MEAN_MOTION_DOT":0.00000611,"MEAN_MOTION_DDOT":0},{"OBJECT_NAME":"KUIPER-00300","OBJECT_ID":"2026-072AA","EPOCH":"2026-07-11T20:14:18.999744","CLASSIFICATION_TYPE":"U","MEAN_MOTION":14.76473997,"ECCENTRICITY":0.0001868,"INCLINATION":51.9036,"RA_OF_ASC_NODE":75.8487,"ARG_OF_PERICENTER":126.4606,"MEAN_ANOMALY":233.6527,"EPHEMERIS_TYPE":0,"NORAD_CAT_ID":68597,"ELEMENT_SET_NO":999,"REV_AT_EPOCH":1492,"BSTAR":0.00011959,"MEAN_MOTION_DOT":0.00000625,"MEAN_MOTION_DDOT":0},{"OBJECT_NAME":"KUIPER-00301","OBJECT_ID":"2026-072AB","EPOCH":"2026-07-11T20:06:48.244032","CLASSIFICATION_TYPE":"U","MEAN_MOTION":15.38693985,"ECCENTRICITY":0.0009544,"INCLINATION":51.8659,"RA_OF_ASC_NODE":57.5693,"ARG_OF_PERICENTER":110.7214,"MEAN_ANOMALY":249.4797,"EPHEMERIS_TYPE":0,"NORAD_CAT_ID":68598,"ELEMENT_SET_NO":999,"REV_AT_EPOCH":1517,"BSTAR":0.00059769,"MEAN_MOTION_DOT":0.00022917,"MEAN_MOTION_DDOT":0},{"OBJECT_NAME":"KUIPER-00304","OBJECT_ID":"2026-072AC","EPOCH":"2026-07-11T18:52:42.604608","CLASSIFICATION_TYPE":"U","MEAN_MOTION":15.38499181,"ECCENTRICITY":0.0011809,"INCLINATION":51.8675,"RA_OF_ASC_NODE":57.9829,"ARG_OF_PERICENTER":112.8231,"MEAN_ANOMALY":247.4004,"EPHEMERIS_TYPE":0,"NORAD_CAT_ID":68599,"ELEMENT_SET_NO":999,"REV_AT_EPOCH":1516,"BSTAR":0.00057078,"MEAN_MOTION_DOT":0.00021739,"MEAN_MOTION_DDOT":0},{"OBJECT_NAME":"KUIPER-00317","OBJECT_ID":"2026-072AD","EPOCH":"2026-07-11T19:51:08.778816","CLASSIFICATION_TYPE":"U","MEAN_MOTION":14.79964514,"ECCENTRICITY":0.0001778,"INCLINATION":51.8994,"RA_OF_ASC_NODE":66.7071,"ARG_OF_PERICENTER":135.7017,"MEAN_ANOMALY":224.4088,"EPHEMERIS_TYPE":0,"NORAD_CAT_ID":68600,"ELEMENT_SET_NO":999,"REV_AT_EPOCH":1504,"BSTAR":0.0005014,"MEAN_MOTION_DOT":0.00003606,"MEAN_MOTION_DDOT":0},{"OBJECT_NAME":"KUIPER-00320","OBJECT_ID":"2026-072AE","EPOCH":"2026-07-11T01:53:42.623520","CLASSIFICATION_TYPE":"U","MEAN_MOTION":14.7992359,"ECCENTRICITY":0.00007209,"INCLINATION":51.9023,"RA_OF_ASC_NODE":75.004,"ARG_OF_PERICENTER":119.4256,"MEAN_ANOMALY":240.6779,"EPHEMERIS_TYPE":0,"NORAD_CAT_ID":68601,"ELEMENT_SET_NO":999,"REV_AT_EPOCH":1486,"BSTAR":0.00028487267,"MEAN_MOTION_DOT":0.00001951,"MEAN_MOTION_DDOT":0},{"OBJECT_NAME":"KUIPER-00299","OBJECT_ID":"2026-095A","EPOCH":"2026-07-11T07:06:45.152352","CLASSIFICATION_TYPE":"U","MEAN_MOTION":14.7647119,"ECCENTRICITY":0.00015428,"INCLINATION":51.8993,"RA_OF_ASC_NODE":142.5206,"ARG_OF_PERICENTER":253.6818,"MEAN_ANOMALY":106.3973,"EPHEMERIS_TYPE":0,"NORAD_CAT_ID":68864,"ELEMENT_SET_NO":999,"REV_AT_EPOCH":1120,"BSTAR":0.00020465214,"MEAN_MOTION_DOT":0.00001223,"MEAN_MOTION_DDOT":0},{"OBJECT_NAME":"KUIPER-00353","OBJECT_ID":"2026-095B","EPOCH":"2026-07-11T20:00:03.000384","CLASSIFICATION_TYPE":"U","MEAN_MOTION":14.873559,"ECCENTRICITY":0.000188,"INCLINATION":51.8994,"RA_OF_ASC_NODE":126.8263,"ARG_OF_PERICENTER":8.5275,"MEAN_ANOMALY":291.7265,"EPHEMERIS_TYPE":0,"NORAD_CAT_ID":68865,"ELEMENT_SET_NO":999,"REV_AT_EPOCH":519,"BSTAR":-0.0049015,"MEAN_MOTION_DOT":-0.00044666,"MEAN_MOTION_DDOT":0}]}
